{"type": "FeatureCollection", "features": [ {"type": "Feature", "properties": {"norad_id": 36073, "name": "COSMOS 2251 DEB", "group": "cosmos-2251-debris", "lat": 18.035498229571935, "lon": 143.18185687049674, "alt_km": 784.5800649189796, "timestamp": "2025-12-09T11:33:55.198272+00:00", "meta": {"OBJECT_NAME": "COSMOS 2251 DEB", "OBJECT_ID": "1993-036AYL", "EPOCH": "2025-12-08T16:24:49.058496", "MEAN_MOTION": 14.34945626, "ECCENTRICITY": 0.00236644, "INCLINATION": 74.0317, "RA_OF_ASC_NODE": 329.9936, "ARG_OF_PERICENTER": 39.1653, "MEAN_ANOMALY": 321.1206, "EPHEMERIS_TYPE": 0, "CLASSIFICATION_TYPE": "U", "NORAD_CAT_ID": 36073, "ELEMENT_SET_NO": 999, "REV_AT_EPOCH": 70149, "BSTAR": 0.00044447159, "MEAN_MOTION_DOT": 1.243e-05, "MEAN_MOTION_DDOT": 0}, "tle": {"line1": "1 36073U 93036AYL 25342.68390114  .00001243  00000+0  44447-3 0  9993", "line2": "2 36073  74.0317 329.9936 0023664  39.1653 321.1206 14.34945626701492"}}, "geometry": {"type": "Point", "coordinates": [143.18185687049674, 18.035498229571935]}}, {"type": "Feature", "properties": {"norad_id": 36074, "name": "COSMOS 2251 DEB", "group": "cosmos-2251-debris", "lat": -15.005852167888701, "lon": 170.97695198633252, "alt_km": 763.264568738874, "timestamp": "2025-12-09T11:33:55.198282+00:00", "meta": {"OBJECT_NAME": "COSMOS 2251 DEB", "OBJECT_ID": "1993-036AYM", "EPOCH": "2025-12-04T07:35:54.379968", "MEAN_MOTION": 14.43651509, "ECCENTRICITY": 0.0041318, "INCLINATION": 73.9929, "RA_OF_ASC_NODE": 356.1864, "ARG_OF_PERICENTER": 90.6412, "MEAN_ANOMALY": 269.9479, "EPHEMERIS_TYPE": 0, "CLASSIFICATION_TYPE": "U", "NORAD_CAT_ID": 36074, "ELEMENT_SET_NO": 999, "REV_AT_EPOCH": 85788, "BSTAR": 0.0017767, "MEAN_MOTION_DOT": 6.071e-05, "MEAN_MOTION_DDOT": 0}, "tle": {"line1": "1 36074U 93036AYM 25338.31660162  .00006071  00000+0  17767-2 0  9990", "line2": "2 36074  73.9929 356.1864 0041318  90.6412 269.9479 14.43651509857883"}}, "geometry": {"type": "Point", "coordinates": [170.97695198633252, -15.005852167888701]}}, {"type": "Feature", "properties": {"norad_id": 36366, "name": "COSMOS 2251 DEB", "group": "cosmos-2251-debris", "lat": -64.91814569268504, "lon": 136.62900295615358, "alt_km": 751.9454817857504, "timestamp": "2025-12-09T11:33:55.198291+00:00", "meta": {"OBJECT_NAME": "COSMOS 2251 DEB", "OBJECT_ID": "1993-036AYT", "EPOCH": "2025-12-06T13:42:50.322528", "MEAN_MOTION": 14.33288178, "ECCENTRICITY": 0.00910047, "INCLINATION": 74.0664, "RA_OF_ASC_NODE": 284.3224, "ARG_OF_PERICENTER": 313.7987, "MEAN_ANOMALY": 45.5662, "EPHEMERIS_TYPE": 0, "CLASSIFICATION_TYPE": "U", "NORAD_CAT_ID": 36366, "ELEMENT_SET_NO": 999, "REV_AT_EPOCH": 86200, "BSTAR": 0.0036082315, "MEAN_MOTION_DOT": 0.00010391, "MEAN_MOTION_DDOT": 0}, "tle": {"line1": "1 36366U 93036AYT 25340.57141577  .00010391  00000+0  36082-2 0  9990", "line2": "2 36366  74.0664 284.3224 0091004 313.7987  45.5662 14.33288178862009"}}, "geometry": {"type": "Point", "coordinates": [136.62900295615358, -64.91814569268504]}}, {"type": "Feature", "properties": {"norad_id": 36367, "name": "COSMOS 2251 DEB", "group": "cosmos-2251-debris", "lat": 56.62847896703706, "lon": 31.274150811173538, "alt_km": 1124.4480464557591, "timestamp": "2025-12-09T11:33:55.198301+00:00", "meta": {"OBJECT_NAME": "COSMOS 2251 DEB", "OBJECT_ID": "1993-036AYU", "EPOCH": "2025-12-08T10:44:08.852352", "MEAN_MOTION": 13.86295103, "ECCENTRICITY": 0.0262589, "INCLINATION": 74.0999, "RA_OF_ASC_NODE": 238.6605, "ARG_OF_PERICENTER": 312.501, "MEAN_ANOMALY": 45.4193, "EPHEMERIS_TYPE": 0, "CLASSIFICATION_TYPE": "U", "NORAD_CAT_ID": 36367, "ELEMENT_SET_NO": 999, "REV_AT_EPOCH": 57470, "BSTAR": 0.0023504609, "MEAN_MOTION_DOT": 3.539e-05, "MEAN_MOTION_DDOT": 0}, "tle": {"line1": "1 36367U 93036AYU 25342.44732468  .00003539  00000+0  23505-2 0  9996", "line2": "2 36367  74.0999 238.6605 0262589 312.5010  45.4193 13.86295103574706"}}, "geometry": {"type": "Point", "coordinates": [31.274150811173538, 56.62847896703706]}}, {"type": "Feature", "properties": {"norad_id": 36369, "name": "COSMOS 2251 DEB", "group": "cosmos-2251-debris", "lat": -21.490768230687813, "lon": 70.61626272076697, "alt_km": 663.211421437396, "timestamp": "2025-12-09T11:33:55.198311+00:00", "meta": {"OBJECT_NAME": "COSMOS 2251 DEB", "OBJECT_ID": "1993-036AYW", "EPOCH": "2025-12-08T12:51:14.336640", "MEAN_MOTION": 14.73446953, "ECCENTRICITY": 0.00117103, "INCLINATION": 74.038, "RA_OF_ASC_NODE": 78.9305, "ARG_OF_PERICENTER": 158.6263, "MEAN_ANOMALY": 201.5401, "EPHEMERIS_TYPE": 0, "CLASSIFICATION_TYPE": "U", "NORAD_CAT_ID": 36369, "ELEMENT_SET_NO": 999, "REV_AT_EPOCH": 85860, "BSTAR": 0.0020709111, "MEAN_MOTION_DOT": 0.0001345, "MEAN_MOTION_DDOT": 0}, "tle": {"line1": "1 36369U 93036AYW 25342.53558260  .00013450  00000+0  20709-2 0  9990", "line2": "2 36369  74.0380  78.9305 0011710 158.6263 201.5401 14.73446953858600"}}, "geometry": {"type": "Point", "coordinates": [70.61626272076697, -21.490768230687813]}}, {"type": "Feature", "properties": {"norad_id": 36371, "name": "COSMOS 2251 DEB", "group": "cosmos-2251-debris", "lat": -69.66894543793389, "lon": 117.16816674502077, "alt_km": 664.7064353010219, "timestamp": "2025-12-09T11:33:55.198321+00:00", "meta": {"OBJECT_NAME": "COSMOS 2251 DEB", "OBJECT_ID": "1993-036AYY", "EPOCH": "2025-12-07T19:05:47.723136", "MEAN_MOTION": 14.70448722, "ECCENTRICITY": 0.00102244, "INCLINATION": 74.0118, "RA_OF_ASC_NODE": 171.1395, "ARG_OF_PERICENTER": 209.6534, "MEAN_ANOMALY": 150.4058, "EPHEMERIS_TYPE": 0, "CLASSIFICATION_TYPE": "U", "NORAD_CAT_ID": 36371, "ELEMENT_SET_NO": 999, "REV_AT_EPOCH": 71372, "BSTAR": 0.0029870702, "MEAN_MOTION_DOT": 0.00018131, "MEAN_MOTION_DDOT": 0}, "tle": {"line1": "1 36371U 93036AYY 25341.79569124  .00018131  00000+0  29871-2 0  9991", "line2": "2 36371  74.0118 171.1395 0010224 209.6534 150.4058 14.70448722713720"}}, "geometry": {"type": "Point", "coordinates": [117.16816674502077, -69.66894543793389]}}, {"type": "Feature", "properties": {"norad_id": 36379, "name": "COSMOS 2251 DEB", "group": "cosmos-2251-debris", "lat": 47.91858371502772, "lon": 114.30245515607618, "alt_km": 744.8999671076936, "timestamp": "2025-12-09T11:33:55.198342+00:00", "meta": {"OBJECT_NAME": "COSMOS 2251 DEB", "OBJECT_ID": "1993-036AZG", "EPOCH": "2025-12-08T04:58:44.675328", "MEAN_MOTION": 14.36066652, "ECCENTRICITY": 0.00445661, "INCLINATION": 74.0122, "RA_OF_ASC_NODE": 315.1569, "ARG_OF_PERICENTER": 85.444, "MEAN_ANOMALY": 297.6264, "EPHEMERIS_TYPE": 0, "CLASSIFICATION_TYPE": "U", "NORAD_CAT_ID": 36379, "ELEMENT_SET_NO": 999, "REV_AT_EPOCH": 64763, "BSTAR": 0.0005365522, "MEAN_MOTION_DOT": 1.553e-05, "MEAN_MOTION_DDOT": 0}, "tle": {"line1": "1 36379U 93036AZG 25342.20746152  .00001553  00000+0  53655-3 0  9992", "line2": "2 36379  74.0122 315.1569 0044566  85.4440 297.6264 14.36066652647637"}}, "geometry": {"type": "Point", "coordinates": [114.30245515607618, 47.91858371502772]}}, {"type": "Feature", "properties": {"norad_id": 36385, "name": "COSMOS 2251 DEB", "group": "cosmos-2251-debris", "lat": 13.51480404291556, "lon": 164.87182239233726, "alt_km": 575.3597593025106, "timestamp": "2025-12-09T11:33:55.198354+00:00", "meta": {"OBJECT_NAME": "COSMOS 2251 DEB", "OBJECT_ID": "1993-036AZN", "EPOCH": "2025-12-07T21:59:58.241184", "MEAN_MOTION": 14.72432046, "ECCENTRICITY": 0.01411609, "INCLINATION": 73.9694, "RA_OF_ASC_NODE": 163.968, "ARG_OF_PERICENTER": 339.471, "MEAN_ANOMALY": 20.082, "EPHEMERIS_TYPE": 0, "CLASSIFICATION_TYPE": "U", "NORAD_CAT_ID": 36385, "ELEMENT_SET_NO": 999, "REV_AT_EPOCH": 85031, "BSTAR": 0.0016431975, "MEAN_MOTION_DOT": 0.00012183, "MEAN_MOTION_DDOT": 0}, "tle": {"line1": "1 36385U 93036AZN 25341.91664631  .00012183  00000+0  16432-2 0  9999", "line2": "2 36385  73.9694 163.9680 0141160 339.4710  20.0820 14.72432046850310"}}, "geometry": {"type": "Point", "coordinates": [164.87182239233726, 13.51480404291556]}}, {"type": "Feature", "properties": {"norad_id": 36420, "name": "COSMOS 2251 DEB", "group": "cosmos-2251-debris", "lat": -1.4311042283568554, "lon": -78.93869406730735, "alt_km": 759.061645366739, "timestamp": "2025-12-09T11:33:55.198364+00:00", "meta": {"OBJECT_NAME": "COSMOS 2251 DEB", "OBJECT_ID": "1993-036AZT", "EPOCH": "2025-12-07T02:50:10.556736", "MEAN_MOTION": 14.36891979, "ECCENTRICITY": 0.0017843, "INCLINATION": 74.0373, "RA_OF_ASC_NODE": 285.8145, "ARG_OF_PERICENTER": 14.8376, "MEAN_ANOMALY": 1.703, "EPHEMERIS_TYPE": 0, "CLASSIFICATION_TYPE": "U", "NORAD_CAT_ID": 36420, "ELEMENT_SET_NO": 999, "REV_AT_EPOCH": 84956, "BSTAR": 0.00028426544, "MEAN_MOTION_DOT": 8.16e-06, "MEAN_MOTION_DDOT": 0}, "tle": {"line1": "1 36420U 93036AZT 25341.11817774  .00000816  00000+0  28427-3 0  9997", "line2": "2 36420  74.0373 285.8145 0017843  14.8376   1.7030 14.36891979849566"}}, "geometry": {"type": "Point", "coordinates": [-78.93869406730735, -1.4311042283568554]}}, {"type": "Feature", "properties": {"norad_id": 36430, "name": "COSMOS 2251 DEB", "group": "cosmos-2251-debris", "lat": 51.55115926089483, "lon": -86.73653645959652, "alt_km": 847.0284074414676, "timestamp": "2025-12-09T11:33:55.198374+00:00", "meta": {"OBJECT_NAME": "COSMOS 2251 DEB", "OBJECT_ID": "1993-036BAD", "EPOCH": "2025-12-07T15:14:59.696160", "MEAN_MOTION": 14.27773173, "ECCENTRICITY": 0.00973352, "INCLINATION": 74.0036, "RA_OF_ASC_NODE": 117.7938, "ARG_OF_PERICENTER": 268.8676, "MEAN_ANOMALY": 90.1319, "EPHEMERIS_TYPE": 0, "CLASSIFICATION_TYPE": "U", "NORAD_CAT_ID": 36430, "ELEMENT_SET_NO": 999, "REV_AT_EPOCH": 64484, "BSTAR": 0.00083938099, "MEAN_MOTION_DOT": 2.154e-05, "MEAN_MOTION_DDOT": 0}, "tle": {"line1": "1 36430U 93036BAD 25341.63541315  .00002154  00000+0  83938-3 0  9995", "line2": "2 36430  74.0036 117.7938 0097335 268.8676  90.1319 14.27773173644845"}}, "geometry": {"type": "Point", "coordinates": [-86.73653645959652, 51.55115926089483]}}]}